STARLINK-34028          
1 63973U 25099X   26086.99765590  .00019469  00000+0  71483-3 0  9999
2 63973  43.0009  69.5839 0000639 261.7590  98.3189 15.27595042 50175
STARLINK-33942          
1 63974U 25099Y   26087.32072537  .00035369  00000+0  12877-2 0  9998
2 63974  43.0043  67.7083 0001491 271.7232  88.3449 15.27604304 50222
STARLINK-34139          
1 63975U 25099Z   26087.38225903  .00024288  00000+0  88901-3 0  9992
2 63975  43.0018  67.3091 0001235 262.8710  97.2002 15.27587653 50140
STARLINK-34090          
1 63976U 25099AA  26087.24762943  .00039682  00000+0  14429-2 0  9995
2 63976  43.0028  68.0172 0000633 268.7805  91.2974 15.27600690 50128
STARLINK-34105          
1 63977U 25099AB  26087.31046584  .00020504  00000+0  75227-3 0  9997
2 63977  43.0015  67.6283 0001208 273.6846  86.3867 15.27592986 50137
STARLINK-33642          
1 63978U 25099AC  26087.43350430  .00047405  00000+0  17205-2 0  9999
2 63978  43.0067  66.8273 0001380 252.3864 107.6837 15.27592715 50156
STARLINK-34045          
1 63979U 25099AD  26087.29888086  .00032973  00000+0  12018-2 0  9998
2 63979  42.9963  67.5412 0001495 265.1929  94.8752 15.27596677 50136
STARLINK-33871          
1 63994U 25101A   26087.46938925  .00035031  00000+0  12755-2 0  9992
2 63994  42.9982 252.2279 0000548 274.7666  85.3123 15.27605356 49859
STARLINK-34154          
1 63995U 25101B   26087.44111891  .00032660  00000+0  11902-2 0  9994
2 63995  42.9991 252.0190 0001122 272.2503  87.8220 15.27604730 49920
STARLINK-34158          
1 63996U 25101C   26087.43341570  .00031937  00000+0  11642-2 0  9990
2 63996  42.9968 251.9931 0000937 273.0283  87.0461 15.27604600 49928
STARLINK-34165          
1 63997U 25101D   26087.16030146  .00024111  00000+0  88260-3 0  9992
2 63997  42.9980 253.3434 0001727 268.5902  91.4752 15.27588819 49882
STARLINK-34150          
1 63998U 25101E   26087.46167986  .00041522  00000+0  15084-2 0  9997
2 63998  42.9987 252.1756 0001349 278.7033  81.3665 15.27613582 49924
STARLINK-34169          
1 63999U 25101F   26087.49751133  .00023741  00000+0  86882-3 0  9992
2 63999  42.9920 251.5792 0000188 310.7643  49.3192 15.27604811 49934
STARLINK-34152          
1 64000U 25101G   26087.43854818  .00032240  00000+0  11748-2 0  9996
2 64000  42.9992 251.9946 0000792 259.8979 100.1783 15.27613139 49922
STARLINK-33927          
1 64001U 25101H   26087.47838273  .00040872  00000+0  14855-2 0  9990
2 64001  42.9974 252.2965 0001336 280.5044  79.5657 15.27604120 49926
STARLINK-33898          
1 64002U 25101J   26087.47067171  .00020784  00000+0  76171-3 0  9992
2 64002  42.9939 252.2377 0000841 303.4573  56.6198 15.27620624 49920
