[{"OBJECT_NAME":"STARLINK-34028","OBJECT_ID":"2025-099X","EPOCH":"2026-03-27T23:56:37.469760","MEAN_MOTION":15.27595042,"ECCENTRICITY":6.394e-5,"INCLINATION":43.0009,"RA_OF_ASC_NODE":69.5839,"ARG_OF_PERICENTER":261.759,"MEAN_ANOMALY":98.3189,"EPHEMERIS_TYPE":0,"CLASSIFICATION_TYPE":"U","NORAD_CAT_ID":63973,"ELEMENT_SET_NO":999,"REV_AT_EPOCH":5017,"BSTAR":0.0007148276,"MEAN_MOTION_DOT":0.00019469,"MEAN_MOTION_DDOT":0},{"OBJECT_NAME":"STARLINK-33942","OBJECT_ID":"2025-099Y","EPOCH":"2026-03-28T07:41:50.671968","MEAN_MOTION":15.27604304,"ECCENTRICITY":0.0001491,"INCLINATION":43.0043,"RA_OF_ASC_NODE":67.7083,"ARG_OF_PERICENTER":271.7232,"MEAN_ANOMALY":88.3449,"EPHEMERIS_TYPE":0,"CLASSIFICATION_TYPE":"U","NORAD_CAT_ID":63974,"ELEMENT_SET_NO":999,"REV_AT_EPOCH":5022,"BSTAR":0.0012877,"MEAN_MOTION_DOT":0.00035369,"MEAN_MOTION_DDOT":0},{"OBJECT_NAME":"STARLINK-34139","OBJECT_ID":"2025-099Z","EPOCH":"2026-03-28T09:10:27.180192","MEAN_MOTION":15.27587653,"ECCENTRICITY":0.0001235,"INCLINATION":43.0018,"RA_OF_ASC_NODE":67.3091,"ARG_OF_PERICENTER":262.871,"MEAN_ANOMALY":97.2002,"EPHEMERIS_TYPE":0,"CLASSIFICATION_TYPE":"U","NORAD_CAT_ID":63975,"ELEMENT_SET_NO":999,"REV_AT_EPOCH":5014,"BSTAR":0.00088901,"MEAN_MOTION_DOT":0.00024288,"MEAN_MOTION_DDOT":0},{"OBJECT_NAME":"STARLINK-34090","OBJECT_ID":"2025-099AA","EPOCH":"2026-03-28T05:56:35.182752","MEAN_MOTION":15.2760069,"ECCENTRICITY":6.33e-5,"INCLINATION":43.0028,"RA_OF_ASC_NODE":68.0172,"ARG_OF_PERICENTER":268.7805,"MEAN_ANOMALY":91.2974,"EPHEMERIS_TYPE":0,"CLASSIFICATION_TYPE":"U","NORAD_CAT_ID":63976,"ELEMENT_SET_NO":999,"REV_AT_EPOCH":5012,"BSTAR":0.0014429,"MEAN_MOTION_DOT":0.00039682,"MEAN_MOTION_DDOT":0},{"OBJECT_NAME":"STARLINK-34105","OBJECT_ID":"2025-099AB","EPOCH":"2026-03-28T07:27:04.247712","MEAN_MOTION":15.27592985,"ECCENTRICITY":0.0001209,"INCLINATION":43.0015,"RA_OF_ASC_NODE":67.6283,"ARG_OF_PERICENTER":273.6846,"MEAN_ANOMALY":86.3867,"EPHEMERIS_TYPE":0,"CLASSIFICATION_TYPE":"U","NORAD_CAT_ID":63977,"ELEMENT_SET_NO":999,"REV_AT_EPOCH":5013,"BSTAR":0.00075227,"MEAN_MOTION_DOT":0.00020504,"MEAN_MOTION_DDOT":0},{"OBJECT_NAME":"STARLINK-33642","OBJECT_ID":"2025-099AC","EPOCH":"2026-03-28T10:24:14.770656","MEAN_MOTION":15.27592715,"ECCENTRICITY":0.0001381,"INCLINATION":43.0067,"RA_OF_ASC_NODE":66.8273,"ARG_OF_PERICENTER":252.3864,"MEAN_ANOMALY":107.6837,"EPHEMERIS_TYPE":0,"CLASSIFICATION_TYPE":"U","NORAD_CAT_ID":63978,"ELEMENT_SET_NO":999,"REV_AT_EPOCH":5015,"BSTAR":0.0017205,"MEAN_MOTION_DOT":0.00047405,"MEAN_MOTION_DDOT":0},{"OBJECT_NAME":"STARLINK-34045","OBJECT_ID":"2025-099AD","EPOCH":"2026-03-28T07:10:23.306304","MEAN_MOTION":15.27596677,"ECCENTRICITY":0.0001495,"INCLINATION":42.9963,"RA_OF_ASC_NODE":67.5412,"ARG_OF_PERICENTER":265.1929,"MEAN_ANOMALY":94.8752,"EPHEMERIS_TYPE":0,"CLASSIFICATION_TYPE":"U","NORAD_CAT_ID":63979,"ELEMENT_SET_NO":999,"REV_AT_EPOCH":5013,"BSTAR":0.0012018,"MEAN_MOTION_DOT":0.00032973,"MEAN_MOTION_DDOT":0},{"OBJECT_NAME":"STARLINK-33871","OBJECT_ID":"2025-101A","EPOCH":"2026-03-28T11:15:55.231200","MEAN_MOTION":15.27605356,"ECCENTRICITY":5.49e-5,"INCLINATION":42.9982,"RA_OF_ASC_NODE":252.2279,"ARG_OF_PERICENTER":274.7666,"MEAN_ANOMALY":85.3123,"EPHEMERIS_TYPE":0,"CLASSIFICATION_TYPE":"U","NORAD_CAT_ID":63994,"ELEMENT_SET_NO":999,"REV_AT_EPOCH":4985,"BSTAR":0.0012755,"MEAN_MOTION_DOT":0.00035031,"MEAN_MOTION_DDOT":0},{"OBJECT_NAME":"STARLINK-34154","OBJECT_ID":"2025-101B","EPOCH":"2026-03-28T10:35:12.673824","MEAN_MOTION":15.27604729,"ECCENTRICITY":0.0001122,"INCLINATION":42.9991,"RA_OF_ASC_NODE":252.019,"ARG_OF_PERICENTER":272.2503,"MEAN_ANOMALY":87.822,"EPHEMERIS_TYPE":0,"CLASSIFICATION_TYPE":"U","NORAD_CAT_ID":63995,"ELEMENT_SET_NO":999,"REV_AT_EPOCH":4992,"BSTAR":0.0011902,"MEAN_MOTION_DOT":0.0003266,"MEAN_MOTION_DDOT":0},{"OBJECT_NAME":"STARLINK-34158","OBJECT_ID":"2025-101C","EPOCH":"2026-03-28T10:24:07.116480","MEAN_MOTION":15.276046,"ECCENTRICITY":9.38e-5,"INCLINATION":42.9968,"RA_OF_ASC_NODE":251.9931,"ARG_OF_PERICENTER":273.0283,"MEAN_ANOMALY":87.0461,"EPHEMERIS_TYPE":0,"CLASSIFICATION_TYPE":"U","NORAD_CAT_ID":63996,"ELEMENT_SET_NO":999,"REV_AT_EPOCH":4992,"BSTAR":0.0011642,"MEAN_MOTION_DOT":0.00031937,"MEAN_MOTION_DDOT":0},{"OBJECT_NAME":"STARLINK-34165","OBJECT_ID":"2025-101D","EPOCH":"2026-03-28T03:50:50.046144","MEAN_MOTION":15.27588819,"ECCENTRICITY":0.00017274,"INCLINATION":42.998,"RA_OF_ASC_NODE":253.3434,"ARG_OF_PERICENTER":268.5902,"MEAN_ANOMALY":91.4752,"EPHEMERIS_TYPE":0,"CLASSIFICATION_TYPE":"U","NORAD_CAT_ID":63997,"ELEMENT_SET_NO":999,"REV_AT_EPOCH":4988,"BSTAR":0.00088259545,"MEAN_MOTION_DOT":0.00024111,"MEAN_MOTION_DDOT":0},{"OBJECT_NAME":"STARLINK-34150","OBJECT_ID":"2025-101E","EPOCH":"2026-03-28T11:04:49.139904","MEAN_MOTION":15.27613582,"ECCENTRICITY":0.000135,"INCLINATION":42.9987,"RA_OF_ASC_NODE":252.1756,"ARG_OF_PERICENTER":278.7033,"MEAN_ANOMALY":81.3665,"EPHEMERIS_TYPE":0,"CLASSIFICATION_TYPE":"U","NORAD_CAT_ID":63998,"ELEMENT_SET_NO":999,"REV_AT_EPOCH":4992,"BSTAR":0.0015084,"MEAN_MOTION_DOT":0.00041522,"MEAN_MOTION_DDOT":0},{"OBJECT_NAME":"STARLINK-34169","OBJECT_ID":"2025-101F","EPOCH":"2026-03-28T11:56:24.978048","MEAN_MOTION":15.27604811,"ECCENTRICITY":1.89e-5,"INCLINATION":42.992,"RA_OF_ASC_NODE":251.5792,"ARG_OF_PERICENTER":310.7643,"MEAN_ANOMALY":49.3192,"EPHEMERIS_TYPE":0,"CLASSIFICATION_TYPE":"U","NORAD_CAT_ID":63999,"ELEMENT_SET_NO":999,"REV_AT_EPOCH":4993,"BSTAR":0.00086882,"MEAN_MOTION_DOT":0.00023741,"MEAN_MOTION_DDOT":0},{"OBJECT_NAME":"STARLINK-34152","OBJECT_ID":"2025-101G","EPOCH":"2026-03-28T10:31:30.561888","MEAN_MOTION":15.27613139,"ECCENTRICITY":7.93e-5,"INCLINATION":42.9992,"RA_OF_ASC_NODE":251.9946,"ARG_OF_PERICENTER":259.8979,"MEAN_ANOMALY":100.1783,"EPHEMERIS_TYPE":0,"CLASSIFICATION_TYPE":"U","NORAD_CAT_ID":64000,"ELEMENT_SET_NO":999,"REV_AT_EPOCH":4992,"BSTAR":0.0011748,"MEAN_MOTION_DOT":0.0003224,"MEAN_MOTION_DDOT":0},{"OBJECT_NAME":"STARLINK-33927","OBJECT_ID":"2025-101H","EPOCH":"2026-03-28T11:28:52.267008","MEAN_MOTION":15.2760412,"ECCENTRICITY":0.0001336,"INCLINATION":42.9974,"RA_OF_ASC_NODE":252.2965,"ARG_OF_PERICENTER":280.5044,"MEAN_ANOMALY":79.5657,"EPHEMERIS_TYPE":0,"CLASSIFICATION_TYPE":"U","NORAD_CAT_ID":64001,"ELEMENT_SET_NO":999,"REV_AT_EPOCH":4992,"BSTAR":0.0014855,"MEAN_MOTION_DOT":0.00040872,"MEAN_MOTION_DDOT":0},{"OBJECT_NAME":"STARLINK-33898","OBJECT_ID":"2025-101J","EPOCH":"2026-03-28T11:17:46.034880","MEAN_MOTION":15.27620624,"ECCENTRICITY":8.42e-5,"INCLINATION":42.9939,"RA_OF_ASC_NODE":252.2377,"ARG_OF_PERICENTER":303.4573,"MEAN_ANOMALY":56.6198,"EPHEMERIS_TYPE":0,"CLASSIFICATION_TYPE":"U","NORAD_CAT_ID":64002,"ELEMENT_SET_NO":999,"REV_AT_EPOCH":4992,"BSTAR":0.00076171,"MEAN_MOTION_DOT":0.00020784,"MEAN_MOTION_DDOT":0}]
